{
  "norad_id": 52878,
  "name": "STARLINK-4171",
  "history": [
    {
      "epoch": "2026-03-28T18:13:11.416224Z",
      "apogee_km": 540.295408478366,
      "perigee_km": 538.778224256961,
      "latitude_deg": -1.4428624334130015e-05,
      "longitude_deg": -170.95937635070652,
      "height_km": 540.5568890235321,
      "semi_major_axis_km": 6917.673816367664,
      "eccentricity": 0.00010966,
      "inclination_deg": 53.2183,
      "raan_deg": 288.5132,
      "arg_perigee_deg": 99.3974,
      "mean_anomaly_deg": 260.7142,
      "mean_motion_rev_day": 15.08907585
    },
    {
      "epoch": "2026-03-30T03:36:18.340128Z",
      "apogee_km": 540.6790212987871,
      "perigee_km": 538.8526949442421,
      "latitude_deg": -1.512891220593191e-05,
      "longitude_deg": 40.64649034544832,
      "height_km": 540.71096784068,
      "semi_major_axis_km": 6917.902858121514,
      "eccentricity": 0.000132,
      "inclination_deg": 53.2179,
      "raan_deg": 282.269,
      "arg_perigee_deg": 93.0944,
      "mean_anomaly_deg": 267.0199,
      "mean_motion_rev_day": 15.08832649
    },
    {
      "epoch": "2026-03-30T13:08:37.107744Z",
      "apogee_km": 540.594154721718,
      "perigee_km": 538.9335817973015,
      "latitude_deg": 3.040192134502471e-05,
      "longitude_deg": -104.60770792965356,
      "height_km": 540.680137251462,
      "semi_major_axis_km": 6917.9008682595095,
      "eccentricity": 0.00012002,
      "inclination_deg": 53.2172,
      "raan_deg": 280.4847,
      "arg_perigee_deg": 91.4059,
      "mean_anomaly_deg": 268.7071,
      "mean_motion_rev_day": 15.088333
    },
    {
      "epoch": "2026-03-30T19:30:09.568800Z",
      "apogee_km": 540.5969124227049,
      "perigee_km": 538.9154493061642,
      "latitude_deg": 5.1741885701231634e-05,
      "longitude_deg": 158.5564982965919,
      "height_km": 540.6715009647129,
      "semi_major_axis_km": 6917.893180864435,
      "eccentricity": 0.00012153,
      "inclination_deg": 53.2172,
      "raan_deg": 279.2953,
      "arg_perigee_deg": 91.3253,
      "mean_anomaly_deg": 268.7879,
      "mean_motion_rev_day": 15.08835815
    },
    {
      "epoch": "2026-03-31T12:59:24.349056Z",
      "apogee_km": 540.6366795451813,
      "perigee_km": 538.8911547857624,
      "latitude_deg": -4.643694406685416e-05,
      "longitude_deg": -107.7443417244984,
      "height_km": 540.6957777034121,
      "semi_major_axis_km": 6917.900917165472,
      "eccentricity": 0.00012616,
      "inclination_deg": 53.2169,
      "raan_deg": 276.0243,
      "arg_perigee_deg": 92.3684,
      "mean_anomaly_deg": 267.7452,
      "mean_motion_rev_day": 15.08833284
    },
    {
      "epoch": "2026-04-01T11:14:48.432768Z",
      "apogee_km": 540.6286516241335,
      "perigee_km": 538.8853423368946,
      "latitude_deg": -3.157313677988666e-05,
      "longitude_deg": -86.67172802682455,
      "height_km": 540.6885420343017,
      "semi_major_axis_km": 6917.893996980513,
      "eccentricity": 0.000126,
      "inclination_deg": 53.2166,
      "raan_deg": 271.8613,
      "arg_perigee_deg": 92.3527,
      "mean_anomaly_deg": 267.7609,
      "mean_motion_rev_day": 15.08835548
    },
    {
      "epoch": "2026-04-02T20:37:54.228288Z",
      "apogee_km": 540.6453482112092,
      "perigee_km": 538.8388132680639,
      "latitude_deg": -5.974627008535943e-05,
      "longitude_deg": 124.93883338363362,
      "height_km": 540.6509825161703,
      "semi_major_axis_km": 6917.879080739636,
      "eccentricity": 0.00013057,
      "inclination_deg": 53.2174,
      "raan_deg": 265.6171,
      "arg_perigee_deg": 90.8317,
      "mean_anomaly_deg": 269.2824,
      "mean_motion_rev_day": 15.08840428
    }
  ]
}